{
  "type": "FeatureCollection",
  "features": [
    {
      "type": "Feature",
      "properties": {
        "norad_id": 31462,
        "name": "FENGYUN 1C DEB",
        "group": "fengyun-1c-debris",
        "lat": 75.09756040853652,
        "lon": -126.2884645147083,
        "alt_km": 830.9474948864654,
        "timestamp": "2025-12-26T15:29:39.721888+00:00",
        "meta_object_name": "FENGYUN 1C DEB",
        "meta_object_id": "1999-025BVA",
        "meta_epoch": "2025-12-22T13:11:27.568896",
        "meta_mean_motion": 14.13022344,
        "meta_eccentricity": 0.00325464,
        "meta_inclination": 98.689,
        "meta_ra_of_asc_node": 14.663,
        "meta_arg_of_pericenter": 176.2989,
        "meta_mean_anomaly": 342.0684,
        "meta_ephemeris_type": 0,
        "meta_classification_type": "U",
        "meta_norad_cat_id": 31462,
        "meta_element_set_no": 999,
        "meta_rev_at_epoch": 95994,
        "meta_bstar": 0.00028157306,
        "meta_mean_motion_dot": 4.85e-06,
        "meta_mean_motion_ddot": 0,
        "tle_line1": "1 31462U 99025BVA 25356.54962464  .00000485  00000+0  28157-3 0  9994",
        "tle_line2": "2 31462  98.6890  14.6630 0032546 176.2989 342.0684 14.13022344959947"
      },
      "geometry": {
        "type": "Point",
        "coordinates": [
          -126.2884645147083,
          75.09756040853652
        ]
      }
    },
    {
      "type": "Feature",
      "properties": {
        "norad_id": 31463,
        "name": "FENGYUN 1C DEB",
        "group": "fengyun-1c-debris",
        "lat": -5.541521235490599,
        "lon": 162.21433815017315,
        "alt_km": 923.4391460326206,
        "timestamp": "2025-12-26T15:29:39.721899+00:00",
        "meta_object_name": "FENGYUN 1C DEB",
        "meta_object_id": "1999-025BVB",
        "meta_epoch": "2025-12-23T04:45:01.858752",
        "meta_mean_motion": 14.36987164,
        "meta_eccentricity": 0.02131915,
        "meta_inclination": 99.0817,
        "meta_ra_of_asc_node": 339.4644,
        "meta_arg_of_pericenter": 9.2607,
        "meta_mean_anomaly": 351.2414,
        "meta_ephemeris_type": 0,
        "meta_classification_type": "U",
        "meta_norad_cat_id": 31463,
        "meta_element_set_no": 999,
        "meta_rev_at_epoch": 64870,
        "meta_bstar": 0.00056955164,
        "meta_mean_motion_dot": 2.135e-05,
        "meta_mean_motion_ddot": 0,
        "tle_line1": "1 31463U 99025BVB 25357.19793818  .00002135  00000+0  56955-3 0  9993",
        "tle_line2": "2 31463  99.0817 339.4644 0213191   9.2607 351.2414 14.36987164648701"
      },
      "geometry": {
        "type": "Point",
        "coordinates": [
          162.21433815017315,
          -5.541521235490599
        ]
      }
    },
    {
      "type": "Feature",
      "properties": {
        "norad_id": 31464,
        "name": "FENGYUN 1C DEB",
        "group": "fengyun-1c-debris",
        "lat": 19.082029256433582,
        "lon": 44.1020808818062,
        "alt_km": 882.5283431698908,
        "timestamp": "2025-12-26T15:29:39.721909+00:00",
        "meta_object_name": "FENGYUN 1C DEB",
        "meta_object_id": "1999-025BVC",
        "meta_epoch": "2025-12-24T23:10:31.080000",
        "meta_mean_motion": 14.12490109,
        "meta_eccentricity": 0.00436815,
        "meta_inclination": 98.7932,
        "meta_ra_of_asc_node": 45.523,
        "meta_arg_of_pericenter": 207.1359,
        "meta_mean_anomaly": 274.483,
        "meta_ephemeris_type": 0,
        "meta_classification_type": "U",
        "meta_norad_cat_id": 31464,
        "meta_element_set_no": 999,
        "meta_rev_at_epoch": 94852,
        "meta_bstar": 0.00029095941,
        "meta_mean_motion_dot": 4.99e-06,
        "meta_mean_motion_ddot": 0,
        "tle_line1": "1 31464U 99025BVC 25358.96563750  .00000499  00000+0  29096-3 0  9997",
        "tle_line2": "2 31464  98.7932  45.5230 0043681 207.1359 274.4830 14.12490109948523"
      },
      "geometry": {
        "type": "Point",
        "coordinates": [
          44.1020808818062,
          19.082029256433582
        ]
      }
    },
    {
      "type": "Feature",
      "properties": {
        "norad_id": 31466,
        "name": "FENGYUN 1C DEB",
        "group": "fengyun-1c-debris",
        "lat": -31.77280758209784,
        "lon": 105.26938073587839,
        "alt_km": 714.7168658310193,
        "timestamp": "2025-12-26T15:29:39.721919+00:00",
        "meta_object_name": "FENGYUN 1C DEB",
        "meta_object_id": "1999-025BVE",
        "meta_epoch": "2025-12-26T00:55:31.560672",
        "meta_mean_motion": 14.18538299,
        "meta_eccentricity": 0.02987418,
        "meta_inclination": 99.0886,
        "meta_ra_of_asc_node": 290.3365,
        "meta_arg_of_pericenter": 270.9055,
        "meta_mean_anomaly": 85.7907,
        "meta_ephemeris_type": 0,
        "meta_classification_type": "U",
        "meta_norad_cat_id": 31466,
        "meta_element_set_no": 999,
        "meta_rev_at_epoch": 96517,
        "meta_bstar": 0.00018244871,
        "meta_mean_motion_dot": 5.29e-06,
        "meta_mean_motion_ddot": 0,
        "tle_line1": "1 31466U 99025BVE 25360.03855973  .00000529  00000+0  18245-3 0  9999",
        "tle_line2": "2 31466  99.0886 290.3365 0298741 270.9055  85.7907 14.18538299965173"
      },
      "geometry": {
        "type": "Point",
        "coordinates": [
          105.26938073587839,
          -31.77280758209784
        ]
      }
    },
    {
      "type": "Feature",
      "properties": {
        "norad_id": 31468,
        "name": "FENGYUN 1C DEB",
        "group": "fengyun-1c-debris",
        "lat": -77.22811585747604,
        "lon": 136.94220992728026,
        "alt_km": 828.0153629619135,
        "timestamp": "2025-12-26T15:29:39.721929+00:00",
        "meta_object_name": "FENGYUN 1C DEB",
        "meta_object_id": "1999-025BVG",
        "meta_epoch": "2025-12-15T17:40:52.277088",
        "meta_mean_motion": 14.46598121,
        "meta_eccentricity": 0.01665536,
        "meta_inclination": 98.1678,
        "meta_ra_of_asc_node": 345.7354,
        "meta_arg_of_pericenter": 157.6429,
        "meta_mean_anomaly": 203.2135,
        "meta_ephemeris_type": 0,
        "meta_classification_type": "U",
        "meta_norad_cat_id": 31468,
        "meta_element_set_no": 999,
        "meta_rev_at_epoch": 67415,
        "meta_bstar": 0.00027310227,
        "meta_mean_motion_dot": 1.122e-05,
        "meta_mean_motion_ddot": 0,
        "tle_line1": "1 31468U 99025BVG 25349.73671617  .00001122  00000+0  27310-3 0  9999",
        "tle_line2": "2 31468  98.1678 345.7354 0166553 157.6429 203.2135 14.46598121674154"
      },
      "geometry": {
        "type": "Point",
        "coordinates": [
          136.94220992728026,
          -77.22811585747604
        ]
      }
    },
    {
      "type": "Feature",
      "properties": {
        "norad_id": 31473,
        "name": "FENGYUN 1C DEB",
        "group": "fengyun-1c-debris",
        "lat": -69.31698881453497,
        "lon": 56.917006357742785,
        "alt_km": 766.3531523242837,
        "timestamp": "2025-12-26T15:29:39.721939+00:00",
        "meta_object_name": "FENGYUN 1C DEB",
        "meta_object_id": "1999-025BVM",
        "meta_epoch": "2025-12-25T01:18:58.811904",
        "meta_mean_motion": 14.2987005,
        "meta_eccentricity": 0.00644258,
        "meta_inclination": 98.5447,
        "meta_ra_of_asc_node": 31.8881,
        "meta_arg_of_pericenter": 338.2554,
        "meta_mean_anomaly": 47.4091,
        "meta_ephemeris_type": 0,
        "meta_classification_type": "U",
        "meta_norad_cat_id": 31473,
        "meta_element_set_no": 999,
        "meta_rev_at_epoch": 69697,
        "meta_bstar": 0.0014425568,
        "meta_mean_motion_dot": 3.754e-05,
        "meta_mean_motion_ddot": 0,
        "tle_line1": "1 31473U 99025BVM 25359.05484736  .00003754  00000+0  14426-2 0  9991",
        "tle_line2": "2 31473  98.5447  31.8881 0064425 338.2554  47.4091 14.29870050696975"
      },
      "geometry": {
        "type": "Point",
        "coordinates": [
          56.917006357742785,
          -69.31698881453497
        ]
      }
    },
    {
      "type": "Feature",
      "properties": {
        "norad_id": 31474,
        "name": "FENGYUN 1C DEB",
        "group": "fengyun-1c-debris",
        "lat": -25.440439587991055,
        "lon": 51.13728519163449,
        "alt_km": 913.3039683097768,
        "timestamp": "2025-12-26T15:29:39.721949+00:00",
        "meta_object_name": "FENGYUN 1C DEB",
        "meta_object_id": "1999-025BVN",
        "meta_epoch": "2025-12-26T01:59:59.282592",
        "meta_mean_motion": 14.10653684,
        "meta_eccentricity": 0.00721093,
        "meta_inclination": 99.1439,
        "meta_ra_of_asc_node": 46.1713,
        "meta_arg_of_pericenter": 169.7749,
        "meta_mean_anomaly": 190.4907,
        "meta_ephemeris_type": 0,
        "meta_classification_type": "U",
        "meta_norad_cat_id": 31474,
        "meta_element_set_no": 999,
        "meta_rev_at_epoch": 95158,
        "meta_bstar": 0.0012239962,
        "meta_mean_motion_dot": 2.194e-05,
        "meta_mean_motion_ddot": 0,
        "tle_line1": "1 31474U 99025BVN 25360.08332503  .00002194  00000+0  12240-2 0  9990",
        "tle_line2": "2 31474  99.1439  46.1713 0072109 169.7749 190.4907 14.10653684951586"
      },
      "geometry": {
        "type": "Point",
        "coordinates": [
          51.13728519163449,
          -25.440439587991055
        ]
      }
    }
  ]
}